[{"OBJECT_NAME":"STARLINK-2605","OBJECT_ID":"48392","TLE_LINE1":"1 48392U 21038AR  26134.71105805  .00000767  00000+0  36468-4 0  9993","TLE_LINE2":"2 48392  53.1626  25.5303 0001096  95.3672 264.7454 15.31709202278770"},{"OBJECT_NAME":"STARLINK-2574","OBJECT_ID":"48395","TLE_LINE1":"1 48395U 21038AU  26134.72535896  .00001332  00000+0  54676-4 0  9994","TLE_LINE2":"2 48395  53.1606  27.8247 0001151  94.2284 265.8849 15.31710380278748"},{"OBJECT_NAME":"STARLINK-2575","OBJECT_ID":"48396","TLE_LINE1":"1 48396U 21038AV  26134.69707108  .00000030  00000+0  12734-4 0  9991","TLE_LINE2":"2 48396  53.1613  25.5550 0001218  88.6352 271.4789 15.31708920278772"},{"OBJECT_NAME":"STARLINK-2590","OBJECT_ID":"48397","TLE_LINE1":"1 48397U 21038AW  26133.98865726  .00003036  00000+0  10952-3 0  9992","TLE_LINE2":"2 48397  53.1591  28.9894 0001041 109.3708 250.7407 15.31710452278664"},{"OBJECT_NAME":"STARLINK-2588","OBJECT_ID":"48398","TLE_LINE1":"1 48398U 21038AX  26134.03807673  .00019370  00000+0  93529-3 0  9996","TLE_LINE2":"2 48398  53.0740  40.8640 0002956   5.4643 354.6383 15.18685685278483"},{"OBJECT_NAME":"STARLINK-2587","OBJECT_ID":"48399","TLE_LINE1":"1 48399U 21038AY  26134.43141908  .00000790  00000+0  37216-4 0  9991","TLE_LINE2":"2 48399  53.1619  26.8545 0001283  91.8838 268.2311 15.31705858278723"},{"OBJECT_NAME":"STARLINK-2576","OBJECT_ID":"48400","TLE_LINE1":"1 48400U 21038AZ  26133.99799977 -.00002085  00000+0 -55429-4 0  9996","TLE_LINE2":"2 48400  53.1609  29.1628 0001366  90.0942 270.0216 15.31700646277445"},{"OBJECT_NAME":"STARLINK-2571","OBJECT_ID":"48401","TLE_LINE1":"1 48401U 21038BA  26134.42646623  .00000791  00000+0  37239-4 0  9994","TLE_LINE2":"2 48401  53.1619  27.2007 0001430  90.5977 269.5189 15.31705953277507"},{"OBJECT_NAME":"STARLINK-2593","OBJECT_ID":"48404","TLE_LINE1":"1 48404U 21038BD  26134.42677473 -.00000210  00000+0  50123-5 0  9999","TLE_LINE2":"2 48404  53.1614  26.9750 0001141  90.8177 269.2955 15.31700892277516"},{"OBJECT_NAME":"STARLINK-2570","OBJECT_ID":"48405","TLE_LINE1":"1 48405U 21038BE  26133.98402613  .00000527  00000+0  28734-4 0  9994","TLE_LINE2":"2 48405  53.1609  29.2126 0001142  86.2898 273.8234 15.31704348277436"},{"OBJECT_NAME":"STARLINK-2568","OBJECT_ID":"48406","TLE_LINE1":"1 48406U 21038BF  26134.73480381  .00001292  00000+0  53389-4 0  9991","TLE_LINE2":"2 48406  53.1599  28.7115 0001404  90.0852 270.0310 15.31706060277517"},{"OBJECT_NAME":"STARLINK-2592","OBJECT_ID":"48408","TLE_LINE1":"1 48408U 21038BH  26134.72046184  .00002422  00000+0  89763-4 0  9992","TLE_LINE2":"2 48408  53.1607  26.0886 0001251  97.3751 262.7393 15.31709933277547"},{"OBJECT_NAME":"STARLINK-2563","OBJECT_ID":"48410","TLE_LINE1":"1 48410U 21038BK  26134.60898995  .00000329  00000+0  22361-4 0  9992","TLE_LINE2":"2 48410  53.1610 350.0322 0001141  84.0266 276.0865 15.31711087278042"},{"OBJECT_NAME":"STARLINK-2505","OBJECT_ID":"48411","TLE_LINE1":"1 48411U 21038BL  26134.00672550  .00001448  00000+0  58417-4 0  9998","TLE_LINE2":"2 48411  53.1615 350.1160 0001212  83.3613 276.7527 15.31703119277987"},{"OBJECT_NAME":"STARLINK-2581","OBJECT_ID":"48412","TLE_LINE1":"1 48412U 21038BM  26134.30603125  .00005435  00000+0  18678-3 0  9998","TLE_LINE2":"2 48412  53.1594 351.3245 0001122  93.8306 266.2824 15.31697928277991"},{"OBJECT_NAME":"STARLINK-2461","OBJECT_ID":"48428","TLE_LINE1":"1 48428U 21040A   26133.67557815 -.00000599  00000+0 -75504-5 0  9992","TLE_LINE2":"2 48428  53.1582 236.5326 0001235  77.8318 282.2821 15.31697849276636"},{"OBJECT_NAME":"STARLINK-2700","OBJECT_ID":"48431","TLE_LINE1":"1 48431U 21040D   26134.85267147  .00097093  00000+0  31648-2 0  9994","TLE_LINE2":"2 48431  53.1593 205.1197 0000506 110.0377 250.0679 15.31035747277161"},{"OBJECT_NAME":"STARLINK-2680","OBJECT_ID":"48432","TLE_LINE1":"1 48432U 21040E   26134.45675444 -.00000628  00000+0 -84650-5 0  9998","TLE_LINE2":"2 48432  53.1604 207.0697 0001000  82.7407 277.3709 15.31713758277093"},{"OBJECT_NAME":"STARLINK-2699","OBJECT_ID":"48433","TLE_LINE1":"1 48433U 21040F   26134.41010785  .00001987  00000+0  75765-4 0  9999","TLE_LINE2":"2 48433  53.1597 206.9952 0001219  84.5684 275.5457 15.31711799277099"},{"OBJECT_NAME":"STARLINK-2692","OBJECT_ID":"48434","TLE_LINE1":"1 48434U 21040G   26134.45707395  .00000374  00000+0  23820-4 0  9998","TLE_LINE2":"2 48434  53.1604 206.9377 0001175  99.7739 260.3395 15.31708787277119"},{"OBJECT_NAME":"STARLINK-2633","OBJECT_ID":"48435","TLE_LINE1":"1 48435U 21040H   26134.69745679  .00005898  00000+0  20158-3 0  9998","TLE_LINE2":"2 48435  53.1606 218.3101 0001153  79.2265 280.8866 15.31714690276969"},{"OBJECT_NAME":"STARLINK-2639","OBJECT_ID":"48436","TLE_LINE1":"1 48436U 21040J   26134.54206068  .00000030  00000+0  12723-4 0  9990","TLE_LINE2":"2 48436  53.1592 231.9159 0000984  71.2700 288.8408 15.31708189276769"},{"OBJECT_NAME":"STARLINK-2642","OBJECT_ID":"48437","TLE_LINE1":"1 48437U 21040K   26134.68529033  .00000628  00000+0  32000-4 0  9999","TLE_LINE2":"2 48437  53.1587 244.1423 0001600 111.1276 248.9896 15.31702069276604"},{"OBJECT_NAME":"STARLINK-2640","OBJECT_ID":"48438","TLE_LINE1":"1 48438U 21040L   26134.54241360 -.00001743  00000+0 -44426-4 0  9995","TLE_LINE2":"2 48438  53.1584 231.9773 0001240  81.8615 278.2527 15.31697451276766"},{"OBJECT_NAME":"STARLINK-2583","OBJECT_ID":"48439","TLE_LINE1":"1 48439U 21040M   26134.42590293  .00000743  00000+0  35700-4 0  9997","TLE_LINE2":"2 48439  53.1617 232.6973 0001119  94.3569 265.7560 15.31715093276745"},{"OBJECT_NAME":"STARLINK-2682","OBJECT_ID":"48440","TLE_LINE1":"1 48440U 21040N   26134.85466056  .00005668  00000+0  19424-3 0  9990","TLE_LINE2":"2 48440  53.1593 230.4304 0001108  87.6447 272.4681 15.31708393276814"},{"OBJECT_NAME":"STARLINK-2702","OBJECT_ID":"48441","TLE_LINE1":"1 48441U 21040P   26134.53307409 -.00004474  00000+0 -13243-3 0  9991","TLE_LINE2":"2 48441  53.1601 232.0172 0001290 105.1730 254.9414 15.31716263276767"},{"OBJECT_NAME":"STARLINK-2644","OBJECT_ID":"48442","TLE_LINE1":"1 48442U 21040Q   26134.64925377 -.00000947  00000+0 -18744-4 0  9997","TLE_LINE2":"2 48442  53.1592 231.3633 0001237  88.9424 271.1719 15.31696853276783"},{"OBJECT_NAME":"STARLINK-2663","OBJECT_ID":"48443","TLE_LINE1":"1 48443U 21040R   26134.64492555  .00000556  00000+0  29683-4 0  9993","TLE_LINE2":"2 48443  53.1591 231.3807 0001556  93.6586 266.4593 15.31706057276787"},{"OBJECT_NAME":"STARLINK-2645","OBJECT_ID":"48444","TLE_LINE1":"1 48444U 21040S   26134.25809768 -.00000803  00000+0 -14118-4 0  9993","TLE_LINE2":"2 48444  53.1593 233.2675 0000904  92.2192 267.8913 15.31701638276723"},{"OBJECT_NAME":"STARLINK-2634","OBJECT_ID":"48445","TLE_LINE1":"1 48445U 21040T   26134.70551851  .00000901  00000+0  40782-4 0  9994","TLE_LINE2":"2 48445  53.1589 231.1216 0001460  88.7824 271.3345 15.31705647276797"},{"OBJECT_NAME":"STARLINK-2655","OBJECT_ID":"48449","TLE_LINE1":"1 48449U 21040X   26134.56569558  .00001568  00000+0  62277-4 0  9998","TLE_LINE2":"2 48449  53.1589 231.7894 0001104  70.6619 289.4501 15.31706703276772"},{"OBJECT_NAME":"STARLINK-2703","OBJECT_ID":"48452","TLE_LINE1":"1 48452U 21040AA  26134.56103152  .00002452  00000+0  90732-4 0  9996","TLE_LINE2":"2 48452  53.1588 231.8070 0001047  74.1833 285.9284 15.31707195276770"},{"OBJECT_NAME":"STARLINK-2620","OBJECT_ID":"48453","TLE_LINE1":"1 48453U 21040AB  26134.55170193  .00001736  00000+0  67657-4 0  9999","TLE_LINE2":"2 48453  53.1618 231.8250 0001111  93.7824 266.3305 15.31712107276770"},{"OBJECT_NAME":"STARLINK-2654","OBJECT_ID":"48454","TLE_LINE1":"1 48454U 21040AC  26134.67756696  .00004772  00000+0  16541-3 0  9999","TLE_LINE2":"2 48454  53.1590 231.2254 0001329  82.6414 277.4738 15.31706505276791"},{"OBJECT_NAME":"STARLINK-2497","OBJECT_ID":"48455","TLE_LINE1":"1 48455U 21040AD  26134.57039181  .00000620  00000+0  31738-4 0  9996","TLE_LINE2":"2 48455  53.1615 232.0161 0001253  97.6074 262.5069 15.31709353276763"},{"OBJECT_NAME":"STARLINK-2698","OBJECT_ID":"48458","TLE_LINE1":"1 48458U 21040AG  26134.57078204  .00001783  00000+0  69209-4 0  9993","TLE_LINE2":"2 48458  53.1572 232.3976 0001537  94.3145 265.8032 15.31703351277481"},{"OBJECT_NAME":"STARLINK-2579","OBJECT_ID":"48459","TLE_LINE1":"1 48459U 21040AH  26134.53773412  .00001167  00000+0  49346-4 0  9999","TLE_LINE2":"2 48459  53.1591 231.9483 0001024  69.4563 290.6549 15.31705658276782"},{"OBJECT_NAME":"STARLINK-2582","OBJECT_ID":"48460","TLE_LINE1":"1 48460U 21040AJ  26134.34846251  .00074682  00000+0  57453-3 0  9991","TLE_LINE2":"2 48460  53.0500 169.0319 0008381   4.1175 355.9909 15.71328821278144"},{"OBJECT_NAME":"STARLINK-2683","OBJECT_ID":"48462","TLE_LINE1":"1 48462U 21040AL  26134.56877298  .00011212  00000+0  37242-3 0  9996","TLE_LINE2":"2 48462  53.1597 244.7082 0001227  93.4763 266.6379 15.31708992276590"},{"OBJECT_NAME":"STARLINK-2686","OBJECT_ID":"48464","TLE_LINE1":"1 48464U 21040AN  26134.59243404  .00006475  00000+0  22020-3 0  9990","TLE_LINE2":"2 48464  53.1591 244.7166 0001081  79.6743 280.4380 15.31705604276594"},{"OBJECT_NAME":"STARLINK-2681","OBJECT_ID":"48465","TLE_LINE1":"1 48465U 21040AP  26133.51323749  .00026255  00000+0  42841-3 0  9994","TLE_LINE2":"2 48465  53.1409 243.3945 0001225 351.4088   8.6901 15.52434657276528"},{"OBJECT_NAME":"STARLINK-2687","OBJECT_ID":"48466","TLE_LINE1":"1 48466U 21040AQ  26134.58275132 -.00001133  00000+0 -24722-4 0  9994","TLE_LINE2":"2 48466  53.1594 244.6849 0000999  85.4376 274.6739 15.31726969276602"},{"OBJECT_NAME":"STARLINK-2659","OBJECT_ID":"48467","TLE_LINE1":"1 48467U 21040AR  26134.59672787  .00003468  00000+0  12344-3 0  9990","TLE_LINE2":"2 48467  53.1582 244.5065 0001067  98.0878 262.0244 15.31705399276609"},{"OBJECT_NAME":"STARLINK-2685","OBJECT_ID":"48468","TLE_LINE1":"1 48468U 21040AS  26133.50616690 -.00001047  00000+0 -21973-4 0  9994","TLE_LINE2":"2 48468  53.1553 249.9567 0001331  88.6638 271.4516 15.31699290276436"}]